ONEWEB-0171             
1 48070U 21025AE  25364.51344453  .00000333  00000+0  87599-3 0  9997
2 48070  87.8977 353.7602 0001654  82.1945 277.9372 13.13468613231478
ONEWEB-0172             
1 48071U 21025AF  25364.34077160  .00000236  00000+0  61262-3 0  9998
2 48071  87.8989 353.7789 0001587  83.8033 276.3277 13.13469241232341
ONEWEB-0174             
1 48072U 21025AG  25364.47450648 -.00000255  00000+0 -73290-3 0  9996
2 48072  87.8979 353.7547 0001744  91.9587 268.1742 13.13469561231689
ONEWEB-0175             
1 48073U 21025AH  25364.50497787  .00000363  00000+0  95966-3 0  9998
2 48073  87.8984 353.7195 0001664  75.0294 285.1019 13.13469029231342
ONEWEB-0177             
1 48074U 21025AJ  25364.51683172  .00000237  00000+0  61470-3 0  9998
2 48074  87.8989 353.7367 0001572  91.7088 268.4222 13.13468393231537
ONEWEB-0178             
1 48075U 21025AK  25364.53558456 -.00000148  00000+0 -44012-3 0  9993
2 48075  87.8976 353.7721 0001482  81.1597 278.9700 13.13468429231588
ONEWEB-0108             
1 48076U 21025AL  25364.41865133  .00000292  00000+0  76378-3 0  9992
2 48076  87.8988 353.7459 0001933  89.5526 270.5825 13.13470638231496
ONEWEB-0169             
1 48077U 21025AM  25364.52697485 -.00000049  00000+0 -16932-3 0  9990
2 48077  87.8982 353.7442 0001936  90.4383 269.6968 13.13467341230165
